[{"OBJECT_NAME":"STARLINK-2736","OBJECT_ID":"2021-044C","EPOCH":"2026-03-09T12:40:19.816896","MEAN_MOTION":15.30205471,"ECCENTRICITY":0.00013773,"INCLINATION":53.1613,"RA_OF_ASC_NODE":114.585,"ARG_OF_PERICENTER":87.0996,"MEAN_ANOMALY":273.0163,"EPHEMERIS_TYPE":0,"CLASSIFICATION_TYPE":"U","NORAD_CAT_ID":48640,"ELEMENT_SET_NO":999,"REV_AT_EPOCH":26379,"BSTAR":1.8777589e-5,"MEAN_MOTION_DOT":1.97e-6,"MEAN_MOTION_DDOT":0},{"OBJECT_NAME":"KUIPER-00222","OBJECT_ID":"2026-030U","EPOCH":"2026-03-09T16:13:57.726048","MEAN_MOTION":15.32445377,"ECCENTRICITY":0.00128002,"INCLINATION":51.8817,"RA_OF_ASC_NODE":219.7147,"ARG_OF_PERICENTER":40.1845,"MEAN_ANOMALY":320.0084,"EPHEMERIS_TYPE":0,"CLASSIFICATION_TYPE":"U","NORAD_CAT_ID":67782,"ELEMENT_SET_NO":999,"REV_AT_EPOCH":508,"BSTAR":0.0017317201,"MEAN_MOTION_DOT":0.00055223,"MEAN_MOTION_DDOT":0}]
