STARLINK-2736           
1 48640U 21044C   26068.52800714  .00000197  00000+0  18778-4 0  9993
2 48640  53.1613 114.5850 0001377  87.0996 273.0163 15.30205471263791
KUIPER-00222            
1 67782U 26030U   26068.67636257  .00055223  00000+0  17317-2 0  9992
2 67782  51.8817 219.7147 0012800  40.1845 320.0084 15.32445377  5087
